STARLINK-35923          
1 66641U 25271AA  26064.52188105  .00044392  00000+0  15015-2 0  9993
2 66641  53.1613 159.6374 0002183  85.0614 275.0636 15.30209458 16921
STARLINK-35926          
1 66642U 25271AB  26064.64090053  .00030703  00000+0  10438-2 0  9996
2 66642  53.1611 158.9575 0001273  71.0434 289.0705 15.30220300 16908
STARLINK-35918          
1 66643U 25271AC  26064.48072299  .00022186  00000+0  75968-3 0  9997
2 66643  53.1587 159.3840 0001416 124.8351 235.2783 15.30169357 16920
STARLINK-35938          
1 66644U 25271AD  26064.64934697  .00040712  00000+0  13793-2 0  9997
2 66644  53.1610 159.0145 0001297  70.5186 289.5955 15.30195909 16940
STARLINK-35867          
1 66791U 25278A   26064.63119878  .00023807  00000+0  87188-3 0  9998
2 66791  43.0018 137.7093 0001811 265.1856  94.8789 15.27578229 14582
STARLINK-35990          
1 66792U 25278B   26064.25543861  .00029941  00000+0  10927-2 0  9991
2 66792  43.0038 139.1782 0001477 288.5049  71.5642 15.27593312 14532
STARLINK-36051          
1 66793U 25278C   26064.60935282  .00012873  00000+0  47696-3 0  9993
2 66793  42.9998 137.5329 0001529 248.0109 112.0580 15.27546752 14584
STARLINK-36062          
1 66794U 25278D   26064.55039137  .00028198  00000+0  10307-2 0  9997
2 66794  43.0001 137.9537 0001493 251.7591 108.3098 15.27565889 14576
STARLINK-36047          
1 66795U 25278E   26064.60806917  .00025230  00000+0  92324-3 0  9996
2 66795  43.0006 137.5278 0001256 278.2941  81.7769 15.27578959 14582
STARLINK-35964          
1 66796U 25278F   26064.21875501  .00023735  00000+0  86834-3 0  9996
2 66796  43.0020 124.7152 0001761 290.7036  69.3627 15.27613988 14692
STARLINK-36099          
1 66797U 25278G   26064.60034970  .00033711  00000+0  12280-2 0  9995
2 66797  43.0019 137.4651 0000876 201.2022 158.8793 15.27606417 14589
STARLINK-36041          
1 66798U 25278H   26064.22602921  .00021927  00000+0  80420-3 0  9999
2 66798  42.9915 139.8143 0000397 264.9217  95.1589 15.27569739 14520
STARLINK-36044          
1 66799U 25278J   26064.25286834  .00024570  00000+0  90010-3 0  9997
2 66799  42.9992 139.1496 0000826 304.4335  55.6439 15.27553934 14534
STARLINK-35996          
1 66800U 25278K   26064.57465733  .00024563  00000+0  89933-3 0  9996
2 66800  43.0043 137.2699 0002172 267.2594  92.8009 15.27572273 14587
STARLINK-36080          
1 66801U 25278L   26064.56452656  .00037647  00000+0  13708-2 0  9999
2 66801  43.0008 138.0624 0001436 257.9936 102.0755 15.27576848 14577
STARLINK-35604          
1 66802U 25278M   26064.54781758  .00028857  00000+0  10551-2 0  9992
2 66802  42.9996 137.9269 0001567 250.2571 109.8112 15.27546436 14573
