[{"OBJECT_NAME":"STARLINK-35923","OBJECT_ID":"2025-271AA","EPOCH":"2026-03-05T12:31:30.522720","MEAN_MOTION":15.30209458,"ECCENTRICITY":0.0002183,"INCLINATION":53.1613,"RA_OF_ASC_NODE":159.6374,"ARG_OF_PERICENTER":85.0614,"MEAN_ANOMALY":275.0636,"EPHEMERIS_TYPE":0,"CLASSIFICATION_TYPE":"U","NORAD_CAT_ID":66641,"ELEMENT_SET_NO":999,"REV_AT_EPOCH":1692,"BSTAR":0.0015015195,"MEAN_MOTION_DOT":0.00044392,"MEAN_MOTION_DDOT":0},{"OBJECT_NAME":"STARLINK-35926","OBJECT_ID":"2025-271AB","EPOCH":"2026-03-05T15:22:53.805792","MEAN_MOTION":15.302203,"ECCENTRICITY":0.0001273,"INCLINATION":53.1611,"RA_OF_ASC_NODE":158.9575,"ARG_OF_PERICENTER":71.0434,"MEAN_ANOMALY":289.0705,"EPHEMERIS_TYPE":0,"CLASSIFICATION_TYPE":"U","NORAD_CAT_ID":66642,"ELEMENT_SET_NO":999,"REV_AT_EPOCH":1690,"BSTAR":0.0010438337,"MEAN_MOTION_DOT":0.00030703,"MEAN_MOTION_DDOT":0},{"OBJECT_NAME":"STARLINK-35918","OBJECT_ID":"2025-271AC","EPOCH":"2026-03-05T11:32:14.466336","MEAN_MOTION":15.30169357,"ECCENTRICITY":0.00014168,"INCLINATION":53.1587,"RA_OF_ASC_NODE":159.384,"ARG_OF_PERICENTER":124.8351,"MEAN_ANOMALY":235.2783,"EPHEMERIS_TYPE":0,"CLASSIFICATION_TYPE":"U","NORAD_CAT_ID":66643,"ELEMENT_SET_NO":999,"REV_AT_EPOCH":1692,"BSTAR":0.00075968402,"MEAN_MOTION_DOT":0.00022186,"MEAN_MOTION_DDOT":0},{"OBJECT_NAME":"STARLINK-35938","OBJECT_ID":"2025-271AD","EPOCH":"2026-03-05T15:35:03.578208","MEAN_MOTION":15.30195909,"ECCENTRICITY":0.00012978,"INCLINATION":53.161,"RA_OF_ASC_NODE":159.0145,"ARG_OF_PERICENTER":70.5186,"MEAN_ANOMALY":289.5955,"EPHEMERIS_TYPE":0,"CLASSIFICATION_TYPE":"U","NORAD_CAT_ID":66644,"ELEMENT_SET_NO":999,"REV_AT_EPOCH":1694,"BSTAR":0.0013793367,"MEAN_MOTION_DOT":0.00040712,"MEAN_MOTION_DDOT":0},{"OBJECT_NAME":"STARLINK-35867","OBJECT_ID":"2025-278A","EPOCH":"2026-03-05T15:08:55.574592","MEAN_MOTION":15.27578229,"ECCENTRICITY":0.0001811,"INCLINATION":43.0018,"RA_OF_ASC_NODE":137.7093,"ARG_OF_PERICENTER":265.1856,"MEAN_ANOMALY":94.8789,"EPHEMERIS_TYPE":0,"CLASSIFICATION_TYPE":"U","NORAD_CAT_ID":66791,"ELEMENT_SET_NO":999,"REV_AT_EPOCH":1458,"BSTAR":0.00087188089,"MEAN_MOTION_DOT":0.00023807,"MEAN_MOTION_DDOT":0},{"OBJECT_NAME":"STARLINK-35990","OBJECT_ID":"2025-278B","EPOCH":"2026-03-05T06:07:49.895904","MEAN_MOTION":15.27593312,"ECCENTRICITY":0.00014772,"INCLINATION":43.0038,"RA_OF_ASC_NODE":139.1782,"ARG_OF_PERICENTER":288.5049,"MEAN_ANOMALY":71.5642,"EPHEMERIS_TYPE":0,"CLASSIFICATION_TYPE":"U","NORAD_CAT_ID":66792,"ELEMENT_SET_NO":999,"REV_AT_EPOCH":1453,"BSTAR":0.0010927199,"MEAN_MOTION_DOT":0.00029941,"MEAN_MOTION_DDOT":0},{"OBJECT_NAME":"STARLINK-36051","OBJECT_ID":"2025-278C","EPOCH":"2026-03-05T14:37:28.083648","MEAN_MOTION":15.27546752,"ECCENTRICITY":0.00015296,"INCLINATION":42.9998,"RA_OF_ASC_NODE":137.5329,"ARG_OF_PERICENTER":248.0109,"MEAN_ANOMALY":112.058,"EPHEMERIS_TYPE":0,"CLASSIFICATION_TYPE":"U","NORAD_CAT_ID":66793,"ELEMENT_SET_NO":999,"REV_AT_EPOCH":1458,"BSTAR":0.0004769622,"MEAN_MOTION_DOT":0.00012873,"MEAN_MOTION_DDOT":0},{"OBJECT_NAME":"STARLINK-36062","OBJECT_ID":"2025-278D","EPOCH":"2026-03-05T13:12:33.814368","MEAN_MOTION":15.27565889,"ECCENTRICITY":0.00014933,"INCLINATION":43.0001,"RA_OF_ASC_NODE":137.9537,"ARG_OF_PERICENTER":251.7591,"MEAN_ANOMALY":108.3098,"EPHEMERIS_TYPE":0,"CLASSIFICATION_TYPE":"U","NORAD_CAT_ID":66794,"ELEMENT_SET_NO":999,"REV_AT_EPOCH":1457,"BSTAR":0.001030727,"MEAN_MOTION_DOT":0.00028198,"MEAN_MOTION_DDOT":0},{"OBJECT_NAME":"STARLINK-36047","OBJECT_ID":"2025-278E","EPOCH":"2026-03-05T14:35:37.176288","MEAN_MOTION":15.27578959,"ECCENTRICITY":0.00012568,"INCLINATION":43.0006,"RA_OF_ASC_NODE":137.5278,"ARG_OF_PERICENTER":278.2941,"MEAN_ANOMALY":81.7769,"EPHEMERIS_TYPE":0,"CLASSIFICATION_TYPE":"U","NORAD_CAT_ID":66795,"ELEMENT_SET_NO":999,"REV_AT_EPOCH":1458,"BSTAR":0.00092323814,"MEAN_MOTION_DOT":0.0002523,"MEAN_MOTION_DDOT":0},{"OBJECT_NAME":"STARLINK-35964","OBJECT_ID":"2025-278F","EPOCH":"2026-03-05T05:15:00.432864","MEAN_MOTION":15.27613988,"ECCENTRICITY":0.0001761,"INCLINATION":43.002,"RA_OF_ASC_NODE":124.7152,"ARG_OF_PERICENTER":290.7036,"MEAN_ANOMALY":69.3627,"EPHEMERIS_TYPE":0,"CLASSIFICATION_TYPE":"U","NORAD_CAT_ID":66796,"ELEMENT_SET_NO":999,"REV_AT_EPOCH":1469,"BSTAR":0.00086833904,"MEAN_MOTION_DOT":0.00023735,"MEAN_MOTION_DDOT":0},{"OBJECT_NAME":"STARLINK-36099","OBJECT_ID":"2025-278G","EPOCH":"2026-03-05T14:24:30.214080","MEAN_MOTION":15.27606417,"ECCENTRICITY":8.764e-5,"INCLINATION":43.0019,"RA_OF_ASC_NODE":137.4651,"ARG_OF_PERICENTER":201.2022,"MEAN_ANOMALY":158.8793,"EPHEMERIS_TYPE":0,"CLASSIFICATION_TYPE":"U","NORAD_CAT_ID":66797,"ELEMENT_SET_NO":999,"REV_AT_EPOCH":1458,"BSTAR":0.001227993,"MEAN_MOTION_DOT":0.00033711,"MEAN_MOTION_DDOT":0},{"OBJECT_NAME":"STARLINK-36041","OBJECT_ID":"2025-278H","EPOCH":"2026-03-05T05:25:28.923744","MEAN_MOTION":15.27569739,"ECCENTRICITY":3.976e-5,"INCLINATION":42.9915,"RA_OF_ASC_NODE":139.8143,"ARG_OF_PERICENTER":264.9217,"MEAN_ANOMALY":95.1589,"EPHEMERIS_TYPE":0,"CLASSIFICATION_TYPE":"U","NORAD_CAT_ID":66798,"ELEMENT_SET_NO":999,"REV_AT_EPOCH":1452,"BSTAR":0.00080420392,"MEAN_MOTION_DOT":0.00021927,"MEAN_MOTION_DDOT":0},{"OBJECT_NAME":"STARLINK-36044","OBJECT_ID":"2025-278J","EPOCH":"2026-03-05T06:04:07.824576","MEAN_MOTION":15.27553934,"ECCENTRICITY":8.269e-5,"INCLINATION":42.9992,"RA_OF_ASC_NODE":139.1496,"ARG_OF_PERICENTER":304.4335,"MEAN_ANOMALY":55.6439,"EPHEMERIS_TYPE":0,"CLASSIFICATION_TYPE":"U","NORAD_CAT_ID":66799,"ELEMENT_SET_NO":999,"REV_AT_EPOCH":1453,"BSTAR":0.00090010497,"MEAN_MOTION_DOT":0.0002457,"MEAN_MOTION_DDOT":0},{"OBJECT_NAME":"STARLINK-35996","OBJECT_ID":"2025-278K","EPOCH":"2026-03-05T13:47:30.393312","MEAN_MOTION":15.27572273,"ECCENTRICITY":0.00021729,"INCLINATION":43.0043,"RA_OF_ASC_NODE":137.2699,"ARG_OF_PERICENTER":267.2594,"MEAN_ANOMALY":92.8009,"EPHEMERIS_TYPE":0,"CLASSIFICATION_TYPE":"U","NORAD_CAT_ID":66800,"ELEMENT_SET_NO":999,"REV_AT_EPOCH":1458,"BSTAR":0.00089932837,"MEAN_MOTION_DOT":0.00024563,"MEAN_MOTION_DDOT":0},{"OBJECT_NAME":"STARLINK-36080","OBJECT_ID":"2025-278L","EPOCH":"2026-03-05T13:32:55.094784","MEAN_MOTION":15.27576848,"ECCENTRICITY":0.00014367,"INCLINATION":43.0008,"RA_OF_ASC_NODE":138.0624,"ARG_OF_PERICENTER":257.9936,"MEAN_ANOMALY":102.0755,"EPHEMERIS_TYPE":0,"CLASSIFICATION_TYPE":"U","NORAD_CAT_ID":66801,"ELEMENT_SET_NO":999,"REV_AT_EPOCH":1457,"BSTAR":0.0013707624,"MEAN_MOTION_DOT":0.00037647,"MEAN_MOTION_DDOT":0},{"OBJECT_NAME":"STARLINK-35604","OBJECT_ID":"2025-278M","EPOCH":"2026-03-05T13:08:51.438912","MEAN_MOTION":15.27546436,"ECCENTRICITY":0.00015671,"INCLINATION":42.9996,"RA_OF_ASC_NODE":137.9269,"ARG_OF_PERICENTER":250.2571,"MEAN_ANOMALY":109.8112,"EPHEMERIS_TYPE":0,"CLASSIFICATION_TYPE":"U","NORAD_CAT_ID":66802,"ELEMENT_SET_NO":999,"REV_AT_EPOCH":1457,"BSTAR":0.001055136,"MEAN_MOTION_DOT":0.00028857,"MEAN_MOTION_DDOT":0}]
